0 IRIDIUM 33 DEB
1 35621U 97051QT  13280.24885038  .00011124  00000-0  26692-2 0  2956
2 35621 086.2950 105.6746 0002000 290.7795 069.2986 14.53360698232900
0 IRIDIUM 33 DEB
1 35621U 97051QT  13284.24204877  .00013482  00000-0  32267-2 0  2961
2 35621 086.2876 103.9229 0004922 015.2320 345.0208 14.53473297233489
0 IRIDIUM 33 DEB
1 35621U 97051QT  13289.74915831  .00028401  00000-0  67550-2 0  2982
2 35621 086.2827 101.4537 0007562 236.6741 123.3742 14.53688698234281
0 IRIDIUM 33 DEB
1 35621U 97051QT  13291.74528977  .00019471  00000-0  46274-2 0  2994
2 35621 086.2921 100.5559 0008042 246.1759 113.7947 14.53770948234571
0 IRIDIUM 33 DEB
1 35621U 97051QT  13293.19072335  .00019914  00000-0  47277-2 0  3006
2 35621 086.2729 099.9296 0004210 301.8978 058.1286 14.53832257234784
